METEOSAT-11 (MSG-4)     
1 40732U 15034A   26177.66751574  .00000070  00000+0  00000+0 0  9998
2 40732   3.2243  71.0507 0002249 347.7124 105.7615  1.00266035  7316
ELEKTRO-L 2             
1 41105U 15074A   26176.94987031 -.00000113  00000+0  00000+0 0  9995
2 41105   6.7170  70.4166 0000727 286.6211 244.4527  1.00271163 38594
SENTINEL-3A             
1 41335U 16011A   26177.75423110  .00000085  00000+0  53149-4 0  9999
2 41335  98.6246 245.0004 0001437  96.8596 263.2748 14.26735047539420
INSAT-3DR               
1 41752U 16054A   26177.68023358 -.00000066  00000+0  00000+0 0  9994
2 41752   0.1299  86.1996 0010056 186.8884 320.5680  1.00272412 35917
HIMAWARI-9              
1 41836U 16064A   26177.69350877 -.00000264  00000+0  00000+0 0  9998
2 41836   0.0176  42.6421 0001149  69.8877 192.7078  1.00271107 35301
GOES 16                 
1 41866U 16071A   26177.57357477 -.00000080  00000+0  00000+0 0  9995
2 41866   0.3649  85.5362 0000563   6.0774 284.8738  1.00272069 35191
FENGYUN 4A              
1 41882U 16077A   26177.54757616 -.00000348  00000+0  00000+0 0  9992
2 41882   2.3469  80.1884 0008229 152.1316   3.0696  1.00264621 35024
CYGFM05                 
1 41884U 16078A   26177.47730451  .00020719  00000+0  27679-3 0  9993
2 41884  34.9552 199.0543 0008074 235.8683 124.1276 15.57045201530203
CYGFM04                 
1 41885U 16078B   26177.67440951  .00028270  00000+0  31197-3 0  9999
2 41885  34.9304 164.9558 0007282 273.9275  86.0618 15.62010492530482
CYGFM02                 
1 41886U 16078C   26177.65669498  .00034187  00000+0  33361-3 0  9996
2 41886  34.9385 159.3291 0008267 275.9573  84.0211 15.65087365530653
CYGFM01                 
1 41887U 16078D   26177.39784161  .00023434  00000+0  30491-3 0  9997
2 41887  34.9382 200.5628 0007851 229.8106 130.1932 15.57732603530142
CYGFM08                 
1 41888U 16078E   26177.40537000  .00028134  00000+0  32942-3 0  9993
2 41888  34.9412 179.8462 0009155 258.1098 101.8601 15.60462405530417
CYGFM07                 
1 41890U 16078G   26177.68379648  .00027265  00000+0  31807-3 0  9991
2 41890  34.9428 166.3245 0007692 273.4338  86.5507 15.60577907530483
CYGFM03                 
1 41891U 16078H   26177.65484756  .00026809  00000+0  31294-3 0  9999
2 41891  34.9381 168.4525 0007313 262.8179  97.1714 15.60568585530458
FENGYUN 3D              
1 43010U 17072A   26177.73192537 -.00000195  00000+0 -70407-4 0  9993
2 43010  99.0125 152.3264 0002339  47.7980 312.3394 14.19740326446344
NOAA 20 (JPSS-1)        
1 43013U 17073A   26177.72844921  .00000042  00000+0  40828-4 0  9990
2 43013  98.7772 117.1062 0000629 133.0625 227.0604 14.19513365445820
GOES 17                 
1 43226U 18022A   26177.64791446 -.00000172  00000+0  00000+0 0  9993
2 43226   0.9607  85.5548 0000691  24.2666 308.6865  1.00272766 30514
